[{"OBJECT_NAME":"RSW-02","OBJECT_ID":"2021-076C","EPOCH":"2026-03-09T22:35:09.250656","MEAN_MOTION":13.42850154,"ECCENTRICITY":0.00181529,"INCLINATION":86.4146,"RA_OF_ASC_NODE":193.2056,"ARG_OF_PERICENTER":344.632,"MEAN_ANOMALY":15.4271,"EPHEMERIS_TYPE":0,"CLASSIFICATION_TYPE":"U","NORAD_CAT_ID":49114,"ELEMENT_SET_NO":999,"REV_AT_EPOCH":22256,"BSTAR":-0.00034615552,"MEAN_MOTION_DOT":-1.82e-6,"MEAN_MOTION_DDOT":0},{"OBJECT_NAME":"THORAD AGENA D DEB","OBJECT_ID":"1970-025KG","EPOCH":"2026-03-09T06:28:07.053312","MEAN_MOTION":12.92614425,"ECCENTRICITY":0.03850966,"INCLINATION":99.8464,"RA_OF_ASC_NODE":320.8554,"ARG_OF_PERICENTER":229.2766,"MEAN_ANOMALY":256.3695,"EPHEMERIS_TYPE":0,"CLASSIFICATION_TYPE":"U","NORAD_CAT_ID":5220,"ELEMENT_SET_NO":999,"REV_AT_EPOCH":61858,"BSTAR":0.0018945315,"MEAN_MOTION_DOT":6.77e-6,"MEAN_MOTION_DDOT":0}]
